COSMOS 2228             
1 22286U 92094A   25326.76682384  .00002230  00000+0  19317-3 0  9996
2 22286  82.5174 339.6453 0016602 305.1978  54.7689 14.96594704760067
SL-16 R/B               
1 22566U 93016B   25326.77392791  .00000202  00000+0  12815-3 0  9996
2 22566  71.0082  79.7348 0008461 134.7986 225.3826 14.15287618687042
COSMOS 2242             
1 22626U 93024A   25326.63721311  .00001789  00000+0  15705-3 0  9993
2 22626  82.5201   9.0575 0015082 308.6181  51.3690 14.95987645764387
SL-16 R/B               
1 22803U 93059B   25326.75737238 -.00000184  00000+0 -67213-4 0  9998
2 22803  70.9901 236.6213 0016788   5.1843 354.9451 14.17208453664380
ARIANE 40 R/B           
1 22830U 93061H   25326.78542340  .00000277  00000+0  11766-3 0  9994
2 22830  98.5100  32.6764 0009826 237.0302 122.9938 14.32782873678796
COSMOS 2278             
1 23087U 94023A   25326.66215098  .00000295  00000+0  17864-3 0  9997
2 23087  71.0557  39.0148 0009499 206.1271 153.9373 14.14347172629677
SL-16 R/B               
1 23088U 94023B   25326.33334479  .00000002  00000+0  25510-4 0  9991
2 23088  70.9989 296.3399 0001147 127.4552 232.6675 14.14991338630907
SL-16 R/B               
1 23343U 94074B   25326.66255014  .00000521  00000+0  76677-4 0  9990
2 23343  97.7226 356.7631 0006010 197.8643 275.3203 14.79256135671421
SL-16 R/B               
1 23405U 94077B   25326.78079294 -.00000146  00000+0 -49976-4 0  9996
2 23405  70.9825 217.4008 0004499 300.2426  59.8251 14.15547927601105
ARIANE 40+ R/B          
1 23561U 95021B   25326.79952068  .00000361  00000+0  12937-3 0  9992
2 23561  98.4674  34.6272 0007911 101.7708   8.0517 14.39673118603860
SL-16 R/B               
1 23705U 95058B   25326.64114716 -.00000157  00000+0 -55976-4 0  9992
2 23705  71.0225  45.0004 0014945 280.8296  79.1144 14.15474756552706
SL-16 R/B               
1 24298U 96051B   25326.65840139 -.00000021  00000+0  15486-4 0  9991
2 24298  70.7609  41.7889 0018683 286.3674  73.5391 14.12393949506537
