CCSDS_OMM_VERS = 2.0
CREATION_DATE  = 
ORIGINATOR     = 

OBJECT_NAME    = COSMOS 2228
OBJECT_ID      = 1992-094A
CENTER_NAME    = EARTH
REF_FRAME      = TEME
TIME_SYSTEM    = UTC
MEAN_ELEMENT_THEORY = SGP/SGP4

EPOCH          = 2025-11-22T18:24:13.579776
MEAN_MOTION    = 14.96594704
ECCENTRICITY   = .0016602
INCLINATION    = 82.5174
RA_OF_ASC_NODE = 339.6453
ARG_OF_PERICENTER = 305.1978
MEAN_ANOMALY   = 54.7689

EPHEMERIS_TYPE = 0
CLASSIFICATION_TYPE = U
NORAD_CAT_ID   = 22286
ELEMENT_SET_NO = 999
REV_AT_EPOCH   = 76006
BSTAR          = .19317E-3
MEAN_MOTION_DOT = .223E-4
MEAN_MOTION_DDOT = 0

CCSDS_OMM_VERS = 2.0
CREATION_DATE  = 
ORIGINATOR     = 

OBJECT_NAME    = SL-16 R/B
OBJECT_ID      = 1993-016B
CENTER_NAME    = EARTH
REF_FRAME      = TEME
TIME_SYSTEM    = UTC
MEAN_ELEMENT_THEORY = SGP/SGP4

EPOCH          = 2025-11-22T18:34:27.371424
MEAN_MOTION    = 14.15287618
ECCENTRICITY   = .0008461
INCLINATION    = 71.0082
RA_OF_ASC_NODE = 79.7348
ARG_OF_PERICENTER = 134.7986
MEAN_ANOMALY   = 225.3826

EPHEMERIS_TYPE = 0
CLASSIFICATION_TYPE = U
NORAD_CAT_ID   = 22566
ELEMENT_SET_NO = 999
REV_AT_EPOCH   = 68704
BSTAR          = .12815E-3
MEAN_MOTION_DOT = .202E-5
MEAN_MOTION_DDOT = 0

CCSDS_OMM_VERS = 2.0
CREATION_DATE  = 
ORIGINATOR     = 

OBJECT_NAME    = COSMOS 2242
OBJECT_ID      = 1993-024A
CENTER_NAME    = EARTH
REF_FRAME      = TEME
TIME_SYSTEM    = UTC
MEAN_ELEMENT_THEORY = SGP/SGP4

EPOCH          = 2025-11-22T15:17:35.212704
MEAN_MOTION    = 14.95987645
ECCENTRICITY   = .0015082
INCLINATION    = 82.5201
RA_OF_ASC_NODE = 9.0575
ARG_OF_PERICENTER = 308.6181
MEAN_ANOMALY   = 51.3690

EPHEMERIS_TYPE = 0
CLASSIFICATION_TYPE = U
NORAD_CAT_ID   = 22626
ELEMENT_SET_NO = 999
REV_AT_EPOCH   = 76438
BSTAR          = .15705E-3
MEAN_MOTION_DOT = .1789E-4
MEAN_MOTION_DDOT = 0

CCSDS_OMM_VERS = 2.0
CREATION_DATE  = 
ORIGINATOR     = 

OBJECT_NAME    = SL-16 R/B
OBJECT_ID      = 1993-059B
CENTER_NAME    = EARTH
REF_FRAME      = TEME
TIME_SYSTEM    = UTC
MEAN_ELEMENT_THEORY = SGP/SGP4

EPOCH          = 2025-11-22T18:10:36.973632
MEAN_MOTION    = 14.17208453
ECCENTRICITY   = .0016788
INCLINATION    = 70.9901
RA_OF_ASC_NODE = 236.6213
ARG_OF_PERICENTER = 5.1843
MEAN_ANOMALY   = 354.9451

EPHEMERIS_TYPE = 0
CLASSIFICATION_TYPE = U
NORAD_CAT_ID   = 22803
ELEMENT_SET_NO = 999
REV_AT_EPOCH   = 66438
BSTAR          = -.67213E-4
MEAN_MOTION_DOT = -.184E-5
MEAN_MOTION_DDOT = 0

CCSDS_OMM_VERS = 2.0
CREATION_DATE  = 
ORIGINATOR     = 

OBJECT_NAME    = ARIANE 40 R/B
OBJECT_ID      = 1993-061H
CENTER_NAME    = EARTH
REF_FRAME      = TEME
TIME_SYSTEM    = UTC
MEAN_ELEMENT_THEORY = SGP/SGP4

EPOCH          = 2025-11-22T18:51:00.581760
MEAN_MOTION    = 14.32782873
ECCENTRICITY   = .0009826
INCLINATION    = 98.5100
RA_OF_ASC_NODE = 32.6764
ARG_OF_PERICENTER = 237.0302
MEAN_ANOMALY   = 122.9938

EPHEMERIS_TYPE = 0
CLASSIFICATION_TYPE = U
NORAD_CAT_ID   = 22830
ELEMENT_SET_NO = 999
REV_AT_EPOCH   = 67879
BSTAR          = .11766E-3
MEAN_MOTION_DOT = .277E-5
MEAN_MOTION_DDOT = 0

CCSDS_OMM_VERS = 2.0
CREATION_DATE  = 
ORIGINATOR     = 

OBJECT_NAME    = COSMOS 2278
OBJECT_ID      = 1994-023A
CENTER_NAME    = EARTH
REF_FRAME      = TEME
TIME_SYSTEM    = UTC
MEAN_ELEMENT_THEORY = SGP/SGP4

EPOCH          = 2025-11-22T15:53:29.844672
MEAN_MOTION    = 14.14347172
ECCENTRICITY   = .0009499
INCLINATION    = 71.0557
RA_OF_ASC_NODE = 39.0148
ARG_OF_PERICENTER = 206.1271
MEAN_ANOMALY   = 153.9373

EPHEMERIS_TYPE = 0
CLASSIFICATION_TYPE = U
NORAD_CAT_ID   = 23087
ELEMENT_SET_NO = 999
REV_AT_EPOCH   = 62967
BSTAR          = .17864E-3
MEAN_MOTION_DOT = .295E-5
MEAN_MOTION_DDOT = 0

CCSDS_OMM_VERS = 2.0
CREATION_DATE  = 
ORIGINATOR     = 

OBJECT_NAME    = SL-16 R/B
OBJECT_ID      = 1994-023B
CENTER_NAME    = EARTH
REF_FRAME      = TEME
TIME_SYSTEM    = UTC
MEAN_ELEMENT_THEORY = SGP/SGP4

EPOCH          = 2025-11-22T08:00:00.989856
MEAN_MOTION    = 14.14991338
ECCENTRICITY   = .00011473
INCLINATION    = 70.9989
RA_OF_ASC_NODE = 296.3399
ARG_OF_PERICENTER = 127.4552
MEAN_ANOMALY   = 232.6675

EPHEMERIS_TYPE = 0
CLASSIFICATION_TYPE = U
NORAD_CAT_ID   = 23088
ELEMENT_SET_NO = 999
REV_AT_EPOCH   = 63090
BSTAR          = .2550969E-4
MEAN_MOTION_DOT = .2E-7
MEAN_MOTION_DDOT = 0

CCSDS_OMM_VERS = 2.0
CREATION_DATE  = 
ORIGINATOR     = 

OBJECT_NAME    = SL-16 R/B
OBJECT_ID      = 1994-074B
CENTER_NAME    = EARTH
REF_FRAME      = TEME
TIME_SYSTEM    = UTC
MEAN_ELEMENT_THEORY = SGP/SGP4

EPOCH          = 2025-11-22T15:54:04.332096
MEAN_MOTION    = 14.79256135
ECCENTRICITY   = .000601
INCLINATION    = 97.7226
RA_OF_ASC_NODE = 356.7631
ARG_OF_PERICENTER = 197.8643
MEAN_ANOMALY   = 275.3203

EPHEMERIS_TYPE = 0
CLASSIFICATION_TYPE = U
NORAD_CAT_ID   = 23343
ELEMENT_SET_NO = 999
REV_AT_EPOCH   = 67142
BSTAR          = .76677E-4
MEAN_MOTION_DOT = .521E-5
MEAN_MOTION_DDOT = 0

CCSDS_OMM_VERS = 2.0
CREATION_DATE  = 
ORIGINATOR     = 

OBJECT_NAME    = SL-16 R/B
OBJECT_ID      = 1994-077B
CENTER_NAME    = EARTH
REF_FRAME      = TEME
TIME_SYSTEM    = UTC
MEAN_ELEMENT_THEORY = SGP/SGP4

EPOCH          = 2025-11-22T18:44:20.510016
MEAN_MOTION    = 14.15547927
ECCENTRICITY   = .0004499
INCLINATION    = 70.9825
RA_OF_ASC_NODE = 217.4008
ARG_OF_PERICENTER = 300.2426
MEAN_ANOMALY   = 59.8251

EPHEMERIS_TYPE = 0
CLASSIFICATION_TYPE = U
NORAD_CAT_ID   = 23405
ELEMENT_SET_NO = 999
REV_AT_EPOCH   = 60110
BSTAR          = -.49976E-4
MEAN_MOTION_DOT = -.146E-5
MEAN_MOTION_DDOT = 0

CCSDS_OMM_VERS = 2.0
CREATION_DATE  = 
ORIGINATOR     = 

OBJECT_NAME    = ARIANE 40+ R/B
OBJECT_ID      = 1995-021B
CENTER_NAME    = EARTH
REF_FRAME      = TEME
TIME_SYSTEM    = UTC
MEAN_ELEMENT_THEORY = SGP/SGP4

EPOCH          = 2025-11-22T19:11:18.586752
MEAN_MOTION    = 14.39673118
ECCENTRICITY   = .0007911
INCLINATION    = 98.4674
RA_OF_ASC_NODE = 34.6272
ARG_OF_PERICENTER = 101.7708
MEAN_ANOMALY   = 8.0517

EPHEMERIS_TYPE = 0
CLASSIFICATION_TYPE = U
NORAD_CAT_ID   = 23561
ELEMENT_SET_NO = 999
REV_AT_EPOCH   = 60386
BSTAR          = .12937E-3
MEAN_MOTION_DOT = .361E-5
MEAN_MOTION_DDOT = 0

CCSDS_OMM_VERS = 2.0
CREATION_DATE  = 
ORIGINATOR     = 

OBJECT_NAME    = SL-16 R/B
OBJECT_ID      = 1995-058B
CENTER_NAME    = EARTH
REF_FRAME      = TEME
TIME_SYSTEM    = UTC
MEAN_ELEMENT_THEORY = SGP/SGP4

EPOCH          = 2025-11-22T15:23:15.114624
MEAN_MOTION    = 14.15474756
ECCENTRICITY   = .0014945
INCLINATION    = 71.0225
RA_OF_ASC_NODE = 45.0004
ARG_OF_PERICENTER = 280.8296
MEAN_ANOMALY   = 79.1144

EPHEMERIS_TYPE = 0
CLASSIFICATION_TYPE = U
NORAD_CAT_ID   = 23705
ELEMENT_SET_NO = 999
REV_AT_EPOCH   = 55270
BSTAR          = -.55976E-4
MEAN_MOTION_DOT = -.157E-5
MEAN_MOTION_DDOT = 0

CCSDS_OMM_VERS = 2.0
CREATION_DATE  = 
ORIGINATOR     = 

OBJECT_NAME    = SL-16 R/B
OBJECT_ID      = 1996-051B
CENTER_NAME    = EARTH
REF_FRAME      = TEME
TIME_SYSTEM    = UTC
MEAN_ELEMENT_THEORY = SGP/SGP4

EPOCH          = 2025-11-22T15:48:05.880096
MEAN_MOTION    = 14.12393949
ECCENTRICITY   = .0018683
INCLINATION    = 70.7609
RA_OF_ASC_NODE = 41.7889
ARG_OF_PERICENTER = 286.3674
MEAN_ANOMALY   = 73.5391

EPHEMERIS_TYPE = 0
CLASSIFICATION_TYPE = U
NORAD_CAT_ID   = 24298
ELEMENT_SET_NO = 999
REV_AT_EPOCH   = 50653
BSTAR          = .15486E-4
MEAN_MOTION_DOT = -.21E-6
MEAN_MOTION_DDOT = 0

